[{"CCSDS_OMM_VERS":"2.0","COMMENT":"GENERATED VIA SPACE-TRACK.ORG API","CREATION_DATE":"2021-08-18T18:21:36","ORIGINATOR":"18 SPCS","OBJECT_NAME":"TBA - TO BE ASSIGNED","OBJECT_ID":"","CENTER_NAME":"EARTH","REF_FRAME":"TEME","TIME_SYSTEM":"UTC","MEAN_ELEMENT_THEORY":"SGP4","EPOCH":"2021-08-18T13:56:42.958464","MEAN_MOTION":"11.24592818","ECCENTRICITY":"0.20265810","INCLINATION":"51.4186","RA_OF_ASC_NODE":"0.9429","ARG_OF_PERICENTER":"218.6356","MEAN_ANOMALY":"125.0856","EPHEMERIS_TYPE":"0","CLASSIFICATION_TYPE":"U","NORAD_CAT_ID":"84136","ELEMENT_SET_NO":"999","REV_AT_EPOCH":"33173","BSTAR":"0.00892630000000","MEAN_MOTION_DOT":"0.00126432","MEAN_MOTION_DDOT":"0.0000000000000","SEMIMAJOR_AXIS":"8415.339","PERIOD":"128.046","APOAPSIS":"3742.641","PERIAPSIS":"331.768","OBJECT_TYPE":"TBA","RCS_SIZE":null,"COUNTRY_CODE":null,"LAUNCH_DATE":null,"SITE":null,"DECAY_DATE":null,"FILE":"3099053","GP_ID":"182962727","TLE_LINE0":"0 TBA - TO BE ASSIGNED","TLE_LINE1":"1 84136U          21230.58105276 +.00126432 +00000+0 +89263-2 0  9991","TLE_LINE2":"2 84136  51.4186   0.9429 2026581 218.6356 125.0856 11.24592818331733"},{"CCSDS_OMM_VERS":"2.0","COMMENT":"GENERATED VIA SPACE-TRACK.ORG API","CREATION_DATE":"2021-04-01T18:02:04","ORIGINATOR":"18 SPCS","OBJECT_NAME":"TBA - TO BE ASSIGNED","OBJECT_ID":"","CENTER_NAME":"EARTH","REF_FRAME":"TEME","TIME_SYSTEM":"UTC","MEAN_ELEMENT_THEORY":"SGP4","EPOCH":"2019-08-07T09:21:49.225248","MEAN_MOTION":"3.83600145","ECCENTRICITY":"0.57279270","INCLINATION":"65.7368","RA_OF_ASC_NODE":"75.7955","ARG_OF_PERICENTER":"312.6618","MEAN_ANOMALY":"302.2849","EPHEMERIS_TYPE":"0","CLASSIFICATION_TYPE":"U","NORAD_CAT_ID":"84159","ELEMENT_SET_NO":"999","REV_AT_EPOCH":"20894","BSTAR":"0.01391200000000","MEAN_MOTION_DOT":"0.00000355","MEAN_MOTION_DDOT":"0.0000000000000","SEMIMAJOR_AXIS":"17237.833","PERIOD":"375.391","APOAPSIS":"20733.403","PERIAPSIS":"985.993","OBJECT_TYPE":"TBA","RCS_SIZE":null,"COUNTRY_CODE":null,"LAUNCH_DATE":null,"SITE":null,"DECAY_DATE":null,"FILE":"3003335","GP_ID":"174606590","TLE_LINE0":"0 TBA - TO BE ASSIGNED","TLE_LINE1":"1 84159U          19219.39015307 +.00000355 +00000-0 +13912-1 0  9997","TLE_LINE2":"2 84159 065.7368 075.7955 5727927 312.6618 302.2849 03.83600145208949"},{"CCSDS_OMM_VERS":"2.0","COMMENT":"GENERATED VIA SPACE-TRACK.ORG API","CREATION_DATE":"2021-05-09T17:28:41","ORIGINATOR":"18 SPCS","OBJECT_NAME":"TBA - TO BE ASSIGNED","OBJECT_ID":"2012-008","CENTER_NAME":"EARTH","REF_FRAME":"TEME","TIME_SYSTEM":"UTC","MEAN_ELEMENT_THEORY":"SGP4","EPOCH":"2021-05-08T23:46:27.767424","MEAN_MOTION":"2.61945395","ECCENTRICITY":"0.69994070","INCLINATION":"21.3156","RA_OF_ASC_NODE":"37.3132","ARG_OF_PERICENTER":"234.9599","MEAN_ANOMALY":"38.5686","EPHEMERIS_TYPE":"0","CLASSIFICATION_TYPE":"U","NORAD_CAT_ID":"84170","ELEMENT_SET_NO":"999","REV_AT_EPOCH":"4890","BSTAR":"0.00086910000000","MEAN_MOTION_DOT":"0.00001508","MEAN_MOTION_DDOT":"0.0000000000000","SEMIMAJOR_AXIS":"22229.413","PERIOD":"549.733","APOAPSIS":"31410.549","PERIAPSIS":"292.007","OBJECT_TYPE":"TBA","RCS_SIZE":null,"COUNTRY_CODE":null,"LAUNCH_DATE":null,"SITE":null,"DECAY_DATE":null,"FILE":"3033641","GP_ID":"176936110","TLE_LINE0":"0 TBA - TO BE ASSIGNED","TLE_LINE1":"1 84170U 12008    21128.99059916 +.00001508 +00000+0 +86910-3 0  9993","TLE_LINE2":"2 84170  21.3156  37.3132 6999407 234.9599  38.5686  2.61945395 48905"},{"CCSDS_OMM_VERS":"2.0","COMMENT":"GENERATED VIA SPACE-TRACK.ORG API","CREATION_DATE":"2021-11-04T17:50:53","ORIGINATOR":"18 SPCS","OBJECT_NAME":"TBA - TO BE ASSIGNED","OBJECT_ID":"","CENTER_NAME":"EARTH","REF_FRAME":"TEME","TIME_SYSTEM":"UTC","MEAN_ELEMENT_THEORY":"SGP4","EPOCH":"2021-11-03T13:09:26.703072","MEAN_MOTION":"5.49704890","ECCENTRICITY":"0.49837080","INCLINATION":"64.9940","RA_OF_ASC_NODE":"105.0937","ARG_OF_PERICENTER":"135.7619","MEAN_ANOMALY":"277.1703","EPHEMERIS_TYPE":"0","CLASSIFICATION_TYPE":"U","NORAD_CAT_ID":"84188","ELEMENT_SET_NO":"999","REV_AT_EPOCH":"15006","BSTAR":"0.05744400000000","MEAN_MOTION_DOT":"0.00074617","MEAN_MOTION_DDOT":"0.0000000000000","SEMIMAJOR_AXIS":"13561.741","PERIOD":"261.959","APOAPSIS":"13942.381","PERIAPSIS":"424.830","OBJECT_TYPE":"TBA","RCS_SIZE":null,"COUNTRY_CODE":null,"LAUNCH_DATE":null,"SITE":null,"DECAY_DATE":null,"FILE":"3200777","GP_ID":"188874229","TLE_LINE0":"0 TBA - TO BE ASSIGNED","TLE_LINE1":"1 84188U          21307.54822573 +.00074617 +00000+0 +57444-1 0  9997","TLE_LINE2":"2 84188  64.9940 105.0937 4983708 135.7619 277.1703  5.49704890150064"},{"CCSDS_OMM_VERS":"2.0","COMMENT":"GENERATED VIA SPACE-TRACK.ORG API","CREATION_DATE":"2021-11-04T17:50:53","ORIGINATOR":"18 SPCS","OBJECT_NAME":"TBA - TO BE ASSIGNED","OBJECT_ID":"","CENTER_NAME":"EARTH","REF_FRAME":"TEME","TIME_SYSTEM":"UTC","MEAN_ELEMENT_THEORY":"SGP4","EPOCH":"2021-11-04T02:48:15.859872","MEAN_MOTION":"3.83568765","ECCENTRICITY":"0.60246390","INCLINATION":"20.3024","RA_OF_ASC_NODE":"273.4680","ARG_OF_PERICENTER":"144.9687","MEAN_ANOMALY":"275.9776","EPHEMERIS_TYPE":"0","CLASSIFICATION_TYPE":"U","NORAD_CAT_ID":"84197","ELEMENT_SET_NO":"999","REV_AT_EPOCH":"7956","BSTAR":"0.01342100000000","MEAN_MOTION_DOT":"0.00005853","MEAN_MOTION_DDOT":"0.0000000000000","SEMIMAJOR_AXIS":"17238.773","PERIOD":"375.422","APOAPSIS":"21246.376","PERIAPSIS":"474.900","OBJECT_TYPE":"TBA","RCS_SIZE":null,"COUNTRY_CODE":null,"LAUNCH_DATE":null,"SITE":null,"DECAY_DATE":null,"FILE":"3200777","GP_ID":"188874126","TLE_LINE0":"0 TBA - TO BE ASSIGNED","TLE_LINE1":"1 84197U          21308.11685023 +.00005853 +00000+0 +13421-1 0  9991","TLE_LINE2":"2 84197  20.3024 273.4680 6024639 144.9687 275.9776  3.83568765 79562"},{"CCSDS_OMM_VERS":"2.0","COMMENT":"GENERATED VIA SPACE-TRACK.ORG API","CREATION_DATE":"2021-04-01T18:02:04","ORIGINATOR":"18 SPCS","OBJECT_NAME":"TBA - TO BE ASSIGNED","OBJECT_ID":"","CENTER_NAME":"EARTH","REF_FRAME":"TEME","TIME_SYSTEM":"UTC","MEAN_ELEMENT_THEORY":"SGP4","EPOCH":"2019-07-31T04:48:13.517280","MEAN_MOTION":"1.91424087","ECCENTRICITY":"0.72446730","INCLINATION":"22.9409","RA_OF_ASC_NODE":"104.3259","ARG_OF_PERICENTER":"209.9320","MEAN_ANOMALY":"74.1245","EPHEMERIS_TYPE":"0","CLASSIFICATION_TYPE":"U","NORAD_CAT_ID":"84221","ELEMENT_SET_NO":"999","REV_AT_EPOCH":"2326","BSTAR":"0.00000000000000","MEAN_MOTION_DOT":"-0.00000121","MEAN_MOTION_DDOT":"0.0000000000000","SEMIMAJOR_AXIS":"27399.173","PERIOD":"752.256","APOAPSIS":"40870.843","PERIAPSIS":"1171.233","OBJECT_TYPE":"TBA","RCS_SIZE":null,"COUNTRY_CODE":null,"LAUNCH_DATE":null,"SITE":null,"DECAY_DATE":null,"FILE":"3003335","GP_ID":"174606980","TLE_LINE0":"0 TBA - TO BE ASSIGNED","TLE_LINE1":"1 84221U          19212.20015645 -.00000121 +00000-0 +00000-0 0  9990","TLE_LINE2":"2 84221 022.9409 104.3259 7244673 209.9320 074.1245 01.91424087023269"},{"CCSDS_OMM_VERS":"2.0","COMMENT":"GENERATED VIA SPACE-TRACK.ORG API","CREATION_DATE":"2021-11-04T17:50:53","ORIGINATOR":"18 SPCS","OBJECT_NAME":"TBA - TO BE ASSIGNED","OBJECT_ID":"1979-104","CENTER_NAME":"EARTH","REF_FRAME":"TEME","TIME_SYSTEM":"UTC","MEAN_ELEMENT_THEORY":"SGP4","EPOCH":"2021-11-04T07:45:47.855520","MEAN_MOTION":"2.71779002","ECCENTRICITY":"0.68950410","INCLINATION":"20.6246","RA_OF_ASC_NODE":"332.0899","ARG_OF_PERICENTER":"99.4142","MEAN_ANOMALY":"338.1010","EPHEMERIS_TYPE":"0","CLASSIFICATION_TYPE":"U","NORAD_CAT_ID":"84232","ELEMENT_SET_NO":"999","REV_AT_EPOCH":"6082","BSTAR":"0.00632830000000","MEAN_MOTION_DOT":"0.00005028","MEAN_MOTION_DDOT":"0.0000000000000","SEMIMAJOR_AXIS":"21689.918","PERIOD":"529.842","APOAPSIS":"30267.070","PERIAPSIS":"356.496","OBJECT_TYPE":"TBA","RCS_SIZE":null,"COUNTRY_CODE":null,"LAUNCH_DATE":null,"SITE":null,"DECAY_DATE":null,"FILE":"3200777","GP_ID":"188874277","TLE_LINE0":"0 TBA - TO BE ASSIGNED","TLE_LINE1":"1 84232U 79104    21308.32347055 +.00005028 +00000+0 +63283-2 0  9991","TLE_LINE2":"2 84232  20.6246 332.0899 6895041  99.4142 338.1010  2.71779002 60824"},{"CCSDS_OMM_VERS":"2.0","COMMENT":"GENERATED VIA SPACE-TRACK.ORG API","CREATION_DATE":"2018-09-28T04:23:20","ORIGINATOR":"18 SPCS","OBJECT_NAME":"TBA - TO BE ASSIGNED","OBJECT_ID":"2010-057","CENTER_NAME":"EARTH","REF_FRAME":"TEME","TIME_SYSTEM":"UTC","MEAN_ELEMENT_THEORY":"SGP4","EPOCH":"2018-08-31T06:27:51.523776","MEAN_MOTION":"15.37442648","ECCENTRICITY":"0.04076680","INCLINATION":"20.9050","RA_OF_ASC_NODE":"241.3057","ARG_OF_PERICENTER":"53.7235","MEAN_ANOMALY":"59.3337","EPHEMERIS_TYPE":"0","CLASSIFICATION_TYPE":"U","NORAD_CAT_ID":"84233","ELEMENT_SET_NO":"999","REV_AT_EPOCH":"8889","BSTAR":"0.00426190000000","MEAN_MOTION_DOT":"0.05298796","MEAN_MOTION_DDOT":"-0.0000150560000","SEMIMAJOR_AXIS":"6831.811","PERIOD":"93.662","APOAPSIS":"732.187","PERIAPSIS":"175.165","OBJECT_TYPE":"TBA","RCS_SIZE":null,"COUNTRY_CODE":null,"LAUNCH_DATE":null,"SITE":null,"DECAY_DATE":null,"FILE":"2336948","GP_ID":"123467957","TLE_LINE0":"0 TBA - TO BE ASSIGNED","TLE_LINE1":"1 84233U 10057    18243.26934634 +.05298796 -15056-4 +42619-2 0  9990","TLE_LINE2":"2 84233 020.9050 241.3057 0407668 053.7235 059.3337 15.37442648088893"}]